NORAD_CAT_ID,OBJECT_NAME,OBJECT_TYPE,EPOCH,MEAN_MOTION,ECCENTRICITY,INCLINATION,RA_OF_ASC_NODE,ARG_OF_PERICENTER,MEAN_ANOMALY,BSTAR,MEAN_MOTION_DOT,MEAN_MOTION_DDOT,TLE_LINE0,TLE_LINE1,TLE_LINE2,SEMIMAJOR_AXIS,PERIOD,APOGEE,PERIGEE,DECAYED
53780.0,STARLINK-4678,PAYLOAD,2023-11-26 15:53:59,15.08863604,0.0001569,53.2196,58.4043,84.2428,275.8743,0.00032232,4.849e-05,0.0,0 STARLINK-4678,1 53780U 22111H   23330.66249017  .00004849  00000-0  32232-3 0  9996,2 53780  53.2196  58.4043 0001569  84.2428 275.8743 15.08863604 67789,6917.808,95.436,540.759,538.588,0.0
53780.0,STARLINK-4678,PAYLOAD,2023-11-27 10:58:38,15.0881662,0.0001652,53.2196,54.8388,96.0206,264.0975,-0.0006043,-9.886e-05,0.0,0 STARLINK-4678,1 53780U 22111H   23331.45739075 -.00009886  00000-0 -60430-3 0  9991,2 53780  53.2196  54.8388 0001652  96.0206 264.0975 15.08816620 67096,6917.952,95.439,540.96,538.674,0.0
53780.0,STARLINK-4678,PAYLOAD,2023-11-27 12:34:01,15.0881563,0.0001584,53.2195,54.5425,87.304,272.8133,-0.00057385,-9.403e-05,0.0,0 STARLINK-4678,1 53780U 22111H   23331.52363266 -.00009403  00000-0 -57385-3 0  9994,2 53780  53.2195  54.5425 0001584  87.3040 272.8133 15.08815630 67911,6917.955,95.439,540.916,538.724,0.0
53780.0,STARLINK-4678,PAYLOAD,2023-11-28 10:49:25,15.08841509,0.0001841,53.2196,50.379,60.1895,299.9281,3.668e-05,2.96e-06,0.0,0 STARLINK-4678,1 53780U 22111H   23332.45098982  .00000296  00000-0  36680-4 0  9992,2 53780  53.2196  50.3790 0001841  60.1895 299.9281 15.08841509 67248,6917.876,95.437,541.014,538.467,0.0
53780.0,STARLINK-4678,PAYLOAD,2023-11-29 10:40:12,15.08854461,0.0001911,53.2199,45.9216,93.5596,266.5615,0.00058539,9.044e-05,0.0,0 STARLINK-4678,1 53780U 22111H   23333.44458499  .00009044  00000-0  58539-3 0  9991,2 53780  53.2199  45.9216 0001911  93.5596 266.5615 15.08854461 68209,6917.836,95.437,541.023,538.379,0.0
53780.0,STARLINK-4678,PAYLOAD,2023-11-30 12:06:22,15.08839434,0.0001909,53.2188,41.1614,80.8433,279.2775,-0.00014859,-2.652e-05,0.0,0 STARLINK-4678,1 53780U 22111H   23334.50442803 -.00002652  00000-0 -14859-3 0  9998,2 53780  53.2188  41.1614 0001909  80.8433 279.2775 15.08839434 67551,6917.882,95.438,541.068,538.426,0.0
53780.0,STARLINK-4678,PAYLOAD,2023-12-01 11:57:09,15.08843583,0.0001994,53.219,36.7048,84.3835,275.7384,-0.00012197,-2.229e-05,0.0,0 STARLINK-4678,1 53780U 22111H   23335.49803127 -.00002229  00000-0 -12197-3 0  9990,2 53780  53.2190  36.7048 0001994  84.3835 275.7384 15.08843583 68518,6917.869,95.437,541.114,538.355,0.0
53780.0,STARLINK-4678,PAYLOAD,2023-12-01 23:04:51,15.08852259,0.0001477,53.2177,34.6207,98.1456,261.9704,0.00033305,5.018e-05,0.0,0 STARLINK-4678,1 53780U 22111H   23335.96170799  .00005018  00000-0  33305-3 0  9995,2 53780  53.2177  34.6207 0001477  98.1456 261.9704 15.08852259 67775,6917.843,95.437,540.73,538.686,0.0
53780.0,STARLINK-4678,PAYLOAD,2023-12-02 10:12:34,15.08833243,0.0001995,53.2182,32.5425,134.4969,225.6186,-4.1004e-05,-9.41e-06,0.0,0 STARLINK-4678,1 53780U 22111H   23336.42539373 -.00000941  00000-0 -41004-4 0  9992,2 53780  53.2182  32.5425 0001995 134.4969 225.6186 15.08833243 67849,6917.901,95.438,541.146,538.386,0.0
53780.0,STARLINK-4678,PAYLOAD,2023-12-03 10:03:22,15.08831968,0.0001386,53.2172,28.0756,102.498,257.6167,0.00019786,2.862e-05,0.0,0 STARLINK-4678,1 53780U 22111H   23337.41901514  .00002862  00000-0  19786-3 0  9995,2 53780  53.2172  28.0756 0001386 102.4980 257.6167 15.08831968 67999,6917.905,95.438,540.729,538.811,0.0
53780.0,STARLINK-4678,PAYLOAD,2023-12-04 03:32:36,15.08853727,6.34e-05,53.2184,24.7999,64.107,295.9988,0.00062401,9.661e-05,0.0,0 STARLINK-4678,1 53780U 22111H   23338.14764884  .00009661  00000-0  62401-3 0  9999,2 53780  53.2184  24.7999 0000634  64.1070 295.9988 15.08853727 68100,6917.838,95.437,540.142,539.265,0.0
53780.0,STARLINK-4678,PAYLOAD,2023-12-04 09:54:08,15.08882732,0.0001439,53.2176,23.6192,91.7372,268.3785,0.0011708,0.00018416,0.0,0 STARLINK-4678,1 53780U 22111H   23338.41260371  .00018416  00000-0  11708-2 0  9992,2 53780  53.2176  23.6192 0001439  91.7372 268.3785 15.08882732 68140,6917.75,95.435,540.61,538.619,0.0
53780.0,STARLINK-4678,PAYLOAD,2023-12-05 03:23:22,15.08872698,0.0001668,53.218,20.348,110.7418,249.3753,0.00056463,8.717e-05,0.0,0 STARLINK-4678,1 53780U 22111H   23339.14123513  .00008717  00000-0  56463-3 0  9990,2 53780  53.2180  20.3480 0001668 110.7418 249.3753 15.08872698 68252,6917.78,95.435,540.799,538.492,0.0
53780.0,STARLINK-4678,PAYLOAD,2023-12-05 09:44:55,15.08845635,0.0001492,53.2181,19.1589,107.8747,252.2408,0.0012734,0.00020039,0.0,0 STARLINK-4678,1 53780U 22111H   23339.40619656  .00020039  00000-0  12734-2 0  9990,2 53780  53.2181  19.1589 0001492 107.8747 252.2408 15.08845635 68291,6917.863,95.437,540.76,538.696,0.0
53780.0,STARLINK-4678,PAYLOAD,2023-12-06 01:38:46,15.08848725,0.0001939,53.2186,16.1879,112.1446,247.9752,0.00086472,0.00013504,0.0,0 STARLINK-4678,1 53780U 22111H   23340.06859762  .00013504  00000-0  86472-3 0  9998,2 53780  53.2186  16.1879 0001939 112.1446 247.9752 15.08848725 68393,6917.854,95.437,541.06,538.377,0.0
53780.0,STARLINK-4678,PAYLOAD,2023-12-06 09:35:42,15.08842533,0.0001734,53.2185,14.6978,116.2099,243.9072,-4.1721e-05,-9.52e-06,0.0,0 STARLINK-4678,1 53780U 22111H   23340.39979672 -.00000952  00000-0 -41721-4 0  9991,2 53780  53.2185  14.6978 0001734 116.2099 243.9072 15.08842533 68445,6917.873,95.437,540.937,538.538,0.0
53780.0,STARLINK-4678,PAYLOAD,2023-12-07 09:26:29,15.08835882,0.000164,53.2182,10.2384,110.3624,249.7544,5.0573e-05,5.17e-06,0.0,0 STARLINK-4678,1 53780U 22111H   23341.39340246  .00000517  00000-0  50573-4 0  9991,2 53780  53.2182  10.2384 0001640 110.3624 249.7544 15.08835882 68593,6917.893,95.438,540.893,538.623,0.0
53780.0,STARLINK-4678,PAYLOAD,2023-12-08 09:17:17,15.08837709,0.0001603,53.2191,5.7776,78.7042,281.413,9.1804e-05,1.173e-05,0.0,0 STARLINK-4678,1 53780U 22111H   23342.38700825  .00001173  00000-0  91804-4 0  9995,2 53780  53.2191   5.7776 0001603  78.7042 281.4130 15.08837709 69558,6917.887,95.438,540.861,538.643,0.0
53780.0,STARLINK-4678,PAYLOAD,2023-12-09 09:08:04,15.08845747,0.000155,53.2187,1.3178,76.131,283.9854,0.00016601,2.355e-05,0.0,0 STARLINK-4678,1 53780U 22111H   23343.38060271  .00002355  00000-0  16601-3 0  9994,2 53780  53.2187   1.3178 0001550  76.1310 283.9854 15.08845747 68899,6917.863,95.437,540.8,538.656,0.0
53780.0,STARLINK-4678,PAYLOAD,2023-12-11 04:03:28,15.08846431,0.0001671,53.2185,353.2901,88.1483,271.97,-4.7939e-05,-1.051e-05,0.0,0 STARLINK-4678,1 53780U 22111H   23345.16908431 -.00001051  00000-0 -47939-4 0  9994,2 53780  53.2185 353.2901 0001671  88.1483 271.9700 15.08846431 69167,6917.861,95.437,540.882,538.57,0.0
53780.0,STARLINK-4678,PAYLOAD,2023-12-11 07:14:14,15.08846981,0.0001407,53.2194,352.694,93.5047,266.6107,5.6379e-05,6.1e-06,0.0,0 STARLINK-4678,1 53780U 22111H   23345.30156120  .00000610  00000-0  56379-4 0  9996,2 53780  53.2194 352.6940 0001407  93.5047 266.6107 15.08846981 69999,6917.859,95.437,540.697,538.751,0.0
53780.0,STARLINK-4678,PAYLOAD,2023-12-12 07:05:02,15.08841341,0.0001493,53.2192,348.2345,101.0788,259.0372,5.6522e-05,6.12e-06,0.0,0 STARLINK-4678,1 53780U 22111H   23346.29516411  .00000612  00000-0  56522-4 0  9990,2 53780  53.2192 348.2345 0001493 101.0788 259.0372 15.08841341 69332,6917.876,95.437,540.774,538.708,0.0
53780.0,STARLINK-4678,PAYLOAD,2023-12-13 05:20:26,15.0883856,0.0001508,53.2192,344.0717,101.5835,258.5327,2.0402e-05,3.7e-07,0.0,0 STARLINK-4678,1 53780U 22111H   23347.22252685  .00000037  00000-0  20402-4 0  9993,2 53780  53.2192 344.0717 0001508 101.5835 258.5327 15.08838560 70283,6917.885,95.438,540.793,538.707,0.0
53780.0,STARLINK-4678,PAYLOAD,2023-12-14 06:46:36,15.08835886,0.0001436,53.2187,339.3132,99.7794,260.336,4.1549e-05,3.73e-06,0.0,0 STARLINK-4678,1 53780U 22111H   23348.28237052  .00000373  00000-0  41549-4 0  9999,2 53780  53.2187 339.3132 0001436  99.7794 260.3360 15.08835886 69630,6917.893,95.438,540.751,538.765,0.0
53780.0,STARLINK-4678,PAYLOAD,2023-12-15 06:37:23,15.08844476,0.0001389,53.2188,334.8541,83.0653,277.0497,0.00013912,1.927e-05,0.0,0 STARLINK-4678,1 53780U 22111H   23349.27596489  .00001927  00000-0  13912-3 0  9999,2 53780  53.2188 334.8541 0001389  83.0653 277.0497 15.08844476 69789,6917.867,95.437,540.693,538.771,0.0
53780.0,STARLINK-4678,PAYLOAD,2023-12-16 03:17:25,15.08794254,0.0002251,53.22,330.9881,56.0513,304.0693,0.00056686,8.734e-05,0.0,0 STARLINK-4678,1 53780U 22111H   23350.13710598  .00008734  00000-0  56686-3 0  9993,2 53780  53.2200 330.9881 0002251  56.0513 304.0693 15.08794254 69914,6918.02,95.44,541.442,538.328,0.0
53780.0,STARLINK-4678,PAYLOAD,2023-12-16 06:28:11,15.08835819,0.0001931,53.2198,330.3945,77.7138,282.407,3.1851e-05,2.19e-06,0.0,0 STARLINK-4678,1 53780U 22111H   23350.26957833  .00000219  00000-0  31851-4 0  9990,2 53780  53.2198 330.3945 0001931  77.7138 282.4070 15.08835819 69935,6917.893,95.438,541.094,538.422,0.0
53780.0,STARLINK-4678,PAYLOAD,2023-12-17 03:08:12,15.08847969,0.0001759,53.2187,326.5276,72.5516,287.5668,-7.6027e-05,-1.498e-05,0.0,0 STARLINK-4678,1 53780U 22111H   23351.13069464 -.00001498  00000-0 -76027-4 0  9997,2 53780  53.2187 326.5276 0001759  72.5516 287.5668 15.08847969 70062,6917.856,95.437,540.938,538.504,0.0
53780.0,STARLINK-4678,PAYLOAD,2023-12-17 06:18:59,15.08799696,0.0002158,53.2195,325.9336,76.552,283.5713,0.00070514,0.0001094,0.0,0 STARLINK-4678,1 53780U 22111H   23351.26318297  .00010940  00000-0  70514-3 0  9996,2 53780  53.2195 325.9336 0002158  76.5520 283.5713 15.08799696 70086,6918.004,95.44,541.361,538.376,0.0
53780.0,STARLINK-4678,PAYLOAD,2023-12-17 19:02:02,15.08845408,0.0001722,53.2179,323.5608,83.6678,276.4511,0.0001465,2.045e-05,0.0,0 STARLINK-4678,1 53780U 22111H   23351.79308957  .00002045  00000-0  14650-3 0  9992,2 53780  53.2179 323.5608 0001722  83.6678 276.4511 15.08845408 70162,6917.864,95.437,540.92,538.538,0.0
